2 41174  54.9211 184.8358 0003567 299.5875  60.3421  1.70473786 13568
1 41174U 15079A   18052.12101747  .00000033  00000-0  00000+0 0  9993
